IRIDIUM 39              
1 25042U 97069D   25127.25255047  .00000922  00000+0  23638-3 0  9998
2 25042  86.3943 228.6673 0020090  85.2518 275.0980 14.49172541443293
IRIDIUM 38              
1 25043U 97069E   25126.83821269  .00000712  00000+0  22877-3 0  9998
2 25043  86.3953 250.5438 0001459 155.1044 205.0224 14.38081885440016
IRIDIUM 42              
1 25077U 97077A   25127.42066929  .00000660  00000+0  21931-3 0  9996
2 25077  86.3948 256.4211 0001526 105.5287 254.6079 14.36320586435344
IRIDIUM 44              
1 25078U 97077B   25126.85981875  .00000604  00000+0  18474-3 0  9995
2 25078  86.3973 238.6836 0003359 126.9048 233.2459 14.40208945437780
IRIDIUM 45              
1 25104U 97082A   25126.88750642  .00018895  00000+0  69621-3 0  9991
2 25104  86.3586  67.9192 0123087 125.2927 235.9904 15.20735682445760
IRIDIUM 24              
1 25105U 97082B   25127.44110418  .00000747  00000+0  22158-3 0  9997
2 25105  86.3872  97.5849 0010199 202.2757 157.8001 14.42057183437591
IRIDIUM 51              
1 25262U 98018A   25127.37770222  .00047370  00000+0  11275-2 0  9998
2 25262  86.3833  75.9940 0095008  49.0071 311.9349 15.36754285440977
IRIDIUM 57              
1 25273U 98019B   25127.19555035  .00000455  00000+0  15049-3 0  9991
2 25273  86.3983 162.4325 0002258  93.8624 266.2831 14.35866351419116
